{
  "type": "FeatureCollection",
  "features": [
    {
      "type": "Feature",
      "properties": {
        "norad_id": 42939,
        "name": "COSMOS 2522 (752)",
        "group": "gnss",
        "lat": 6.447211981102956,
        "lon": -158.2867704225618,
        "alt_km": 19142.597654465233,
        "timestamp": "2025-12-02T23:34:15.758785+00:00",
        "meta_object_name": "COSMOS 2522 (752)",
        "meta_object_id": "2017-055A",
        "meta_epoch": "2025-12-02T00:49:19.068672",
        "meta_mean_motion": 2.13101864,
        "meta_eccentricity": 0.0006552,
        "meta_inclination": 64.0757,
        "meta_ra_of_asc_node": 198.5937,
        "meta_arg_of_pericenter": 226.1322,
        "meta_mean_anomaly": 133.9083,
        "meta_ephemeris_type": 0,
        "meta_classification_type": "U",
        "meta_norad_cat_id": 42939,
        "meta_element_set_no": 999,
        "meta_rev_at_epoch": 6377,
        "meta_bstar": 0,
        "meta_mean_motion_dot": 1.06e-06,
        "meta_mean_motion_ddot": 0,
        "tle_line1": "1 42939U 17055A   25336.03424848  .00000106  00000+0  00000+0 0  9992",
        "tle_line2": "2 42939  64.0757 198.5937 0006552 226.1322 133.9083  2.13101864 63772"
      },
      "geometry": {
        "type": "Point",
        "coordinates": [
          -158.2867704225618,
          6.447211981102956
        ]
      }
    },
    {
      "type": "Feature",
      "properties": {
        "norad_id": 42965,
        "name": "QZS-4 (QZSS/PRN 195)",
        "group": "gnss",
        "lat": -18.459496806501686,
        "lon": -170.7427805118699,
        "alt_km": 34104.538214967426,
        "timestamp": "2025-12-02T23:34:15.758796+00:00",
        "meta_object_name": "QZS-4 (QZSS/PRN 195)",
        "meta_object_id": "2017-062A",
        "meta_epoch": "2025-12-02T08:37:38.758368",
        "meta_mean_motion": 1.0025504,
        "meta_eccentricity": 0.0752468,
        "meta_inclination": 40.2317,
        "meta_ra_of_asc_node": 346.0052,
        "meta_arg_of_pericenter": 271.2474,
        "meta_mean_anomaly": 80.8165,
        "meta_ephemeris_type": 0,
        "meta_classification_type": "U",
        "meta_norad_cat_id": 42965,
        "meta_element_set_no": 999,
        "meta_rev_at_epoch": 2983,
        "meta_bstar": 0,
        "meta_mean_motion_dot": -3.15e-06,
        "meta_mean_motion_ddot": 0,
        "tle_line1": "1 42965U 17062A   25336.35947637 -.00000315  00000+0  00000+0 0  9993",
        "tle_line2": "2 42965  40.2317 346.0052 0752468 271.2474  80.8165  1.00255040 29831"
      },
      "geometry": {
        "type": "Point",
        "coordinates": [
          -170.7427805118699,
          -18.459496806501686
        ]
      }
    },
    {
      "type": "Feature",
      "properties": {
        "norad_id": 43001,
        "name": "BEIDOU-3 M1 (C19)",
        "group": "gnss",
        "lat": -52.117948705669185,
        "lon": -52.28915056113585,
        "alt_km": 21518.9513908682,
        "timestamp": "2025-12-02T23:34:15.758808+00:00",
        "meta_object_name": "BEIDOU-3 M1 (C19)",
        "meta_object_id": "2017-069A",
        "meta_epoch": "2025-12-02T01:41:27.564288",
        "meta_mean_motion": 1.86230781,
        "meta_eccentricity": 0.00087764,
        "meta_inclination": 56.5176,
        "meta_ra_of_asc_node": 69.587,
        "meta_arg_of_pericenter": 303.6575,
        "meta_mean_anomaly": 56.2612,
        "meta_ephemeris_type": 0,
        "meta_classification_type": "U",
        "meta_norad_cat_id": 43001,
        "meta_element_set_no": 999,
        "meta_rev_at_epoch": 5492,
        "meta_bstar": 0,
        "meta_mean_motion_dot": -4.4e-07,
        "meta_mean_motion_ddot": 0,
        "tle_line1": "1 43001U 17069A   25336.07045792 -.00000044  00000+0  00000+0 0  9991",
        "tle_line2": "2 43001  56.5176  69.5870 0008776 303.6575  56.2612  1.86230781 54920"
      },
      "geometry": {
        "type": "Point",
        "coordinates": [
          -52.28915056113585,
          -52.117948705669185
        ]
      }
    },
    {
      "type": "Feature",
      "properties": {
        "norad_id": 43002,
        "name": "BEIDOU-3 M2 (C20)",
        "group": "gnss",
        "lat": -50.42509422004745,
        "lon": 16.50214559644632,
        "alt_km": 21520.514613848056,
        "timestamp": "2025-12-02T23:34:15.758819+00:00",
        "meta_object_name": "BEIDOU-3 M2 (C20)",
        "meta_object_id": "2017-069B",
        "meta_epoch": "2025-12-01T11:19:28.056000",
        "meta_mean_motion": 1.86230616,
        "meta_eccentricity": 0.00061649,
        "meta_inclination": 56.5166,
        "meta_ra_of_asc_node": 69.6425,
        "meta_arg_of_pericenter": 332.397,
        "meta_mean_anomaly": 27.5733,
        "meta_ephemeris_type": 0,
        "meta_classification_type": "U",
        "meta_norad_cat_id": 43002,
        "meta_element_set_no": 999,
        "meta_rev_at_epoch": 5491,
        "meta_bstar": 0,
        "meta_mean_motion_dot": -4.1e-07,
        "meta_mean_motion_ddot": 0,
        "tle_line1": "1 43002U 17069B   25335.47185250 -.00000041  00000+0  00000+0 0  9996",
        "tle_line2": "2 43002  56.5166  69.6425 0006164 332.3970  27.5733  1.86230616 54915"
      },
      "geometry": {
        "type": "Point",
        "coordinates": [
          16.50214559644632,
          -50.42509422004745
        ]
      }
    },
    {
      "type": "Feature",
      "properties": {
        "norad_id": 43055,
        "name": "GSAT0215 (GALILEO 19)",
        "group": "gnss",
        "lat": -50.77473781198671,
        "lon": 168.39186341565056,
        "alt_km": 23223.460625265776,
        "timestamp": "2025-12-02T23:34:15.758833+00:00",
        "meta_object_name": "GSAT0215 (GALILEO 19)",
        "meta_object_id": "2017-079A",
        "meta_epoch": "2025-11-29T13:52:03.216864",
        "meta_mean_motion": 1.70473718,
        "meta_eccentricity": 0.0001588,
        "meta_inclination": 55.1353,
        "meta_ra_of_asc_node": 227.0004,
        "meta_arg_of_pericenter": 310.5234,
        "meta_mean_anomaly": 49.536,
        "meta_ephemeris_type": 0,
        "meta_classification_type": "U",
        "meta_norad_cat_id": 43055,
        "meta_element_set_no": 999,
        "meta_rev_at_epoch": 4958,
        "meta_bstar": 0,
        "meta_mean_motion_dot": 2.7e-07,
        "meta_mean_motion_ddot": 0,
        "tle_line1": "1 43055U 17079A   25333.57781501  .00000027  00000+0  00000+0 0  9998",
        "tle_line2": "2 43055  55.1353 227.0004 0001588 310.5234  49.5360  1.70473718 49587"
      },
      "geometry": {
        "type": "Point",
        "coordinates": [
          168.39186341565056,
          -50.77473781198671
        ]
      }
    },
    {
      "type": "Feature",
      "properties": {
        "norad_id": 43056,
        "name": "GSAT0216 (GALILEO 20)",
        "group": "gnss",
        "lat": 50.22713999823214,
        "lon": -9.848488543544908,
        "alt_km": 23223.708460464,
        "timestamp": "2025-12-02T23:34:15.758848+00:00",
        "meta_object_name": "GSAT0216 (GALILEO 20)",
        "meta_object_id": "2017-079B",
        "meta_epoch": "2025-12-01T01:00:54.249120",
        "meta_mean_motion": 1.70473856,
        "meta_eccentricity": 0.00027137,
        "meta_inclination": 55.1346,
        "meta_ra_of_asc_node": 226.9601,
        "meta_arg_of_pericenter": 312.5245,
        "meta_mean_anomaly": 47.5297,
        "meta_ephemeris_type": 0,
        "meta_classification_type": "U",
        "meta_norad_cat_id": 43056,
        "meta_element_set_no": 999,
        "meta_rev_at_epoch": 4962,
        "meta_bstar": 0,
        "meta_mean_motion_dot": 3.1e-07,
        "meta_mean_motion_ddot": 0,
        "tle_line1": "1 43056U 17079B   25335.04229455  .00000031  00000+0  00000+0 0  9993",
        "tle_line2": "2 43056  55.1346 226.9601 0002713 312.5245  47.5297  1.70473856 49621"
      },
      "geometry": {
        "type": "Point",
        "coordinates": [
          -9.848488543544908,
          50.22713999823214
        ]
      }
    },
    {
      "type": "Feature",
      "properties": {
        "norad_id": 43057,
        "name": "GSAT0217 (GALILEO 21)",
        "group": "gnss",
        "lat": -20.264584219188162,
        "lon": -147.98853028469821,
        "alt_km": 23216.865389187256,
        "timestamp": "2025-12-02T23:34:15.758860+00:00",
        "meta_object_name": "GSAT0217 (GALILEO 21)",
        "meta_object_id": "2017-079C",
        "meta_epoch": "2025-11-29T12:04:41.145600",
        "meta_mean_motion": 1.70473704,
        "meta_eccentricity": 0.00027563,
        "meta_inclination": 55.1326,
        "meta_ra_of_asc_node": 227.0006,
        "meta_arg_of_pericenter": 340.6935,
        "meta_mean_anomaly": 19.3693,
        "meta_ephemeris_type": 0,
        "meta_classification_type": "U",
        "meta_norad_cat_id": 43057,
        "meta_element_set_no": 999,
        "meta_rev_at_epoch": 4958,
        "meta_bstar": 0,
        "meta_mean_motion_dot": 2.7e-07,
        "meta_mean_motion_ddot": 0,
        "tle_line1": "1 43057U 17079C   25333.50325400  .00000027  00000+0  00000+0 0  9995",
        "tle_line2": "2 43057  55.1326 227.0006 0002756 340.6935  19.3693  1.70473704 49580"
      },
      "geometry": {
        "type": "Point",
        "coordinates": [
          -147.98853028469821,
          -20.264584219188162
        ]
      }
    }
  ]
}